0 FENGYUN 1C DEB
1 31500U 99025BWP 13282.33830097  .00029483  00000-0  27868-2 0  5594
2 31500 098.9541 331.6660 0479753 099.0407 326.4574 14.33886761334981
0 FENGYUN 1C DEB
1 31500U 99025BWP 13283.38401799  .00025543  00000-0  24162-2 0  5602
2 31500 098.9544 332.7525 0479536 095.9758 324.4964 14.33926332335137
0 FENGYUN 1C DEB
1 31500U 99025BWP 13287.90859375  .00015480  00000-0  14635-2 0  5615
2 31500 098.9551 337.4553 0479400 082.6944 281.9764 14.34059372335786
0 FENGYUN 1C DEB
1 31500U 99025BWP 13287.93143637  .00031146  00000-0  29399-2 0  5626
2 31500 098.9545 337.4798 0478977 082.6293 039.9083 14.34067181335787
0 FENGYUN 1C DEB
1 31500U 99025BWP 13288.40742078  .00027954  00000-0  26397-2 0  5631
2 31500 098.9545 337.9740 0478917 081.2373 337.2448 14.34082942335856
0 FENGYUN 1C DEB
1 31500U 99025BWP 13289.10045015  .00025730  00000-0  24303-2 0  5642
2 31500 098.9541 338.6943 0478828 079.2024 315.1676 14.34104915335950
0 FENGYUN 1C DEB
1 31500U 99025BWP 13289.95407527  .00023142  00000-0  21869-2 0  5655
2 31500 098.9538 339.5817 0478697 076.7001 042.2961 14.34131294336076
0 FENGYUN 1C DEB
1 31500U 99025BWP 13291.33863575  .00022034  00000-0  20825-2 0  5660
2 31500 098.9532 341.0214 0478429 072.6374 350.7674 14.34185646336270
0 FENGYUN 1C DEB
1 31500U 99025BWP 13292.38546448  .00020270  00000-0  19162-2 0  5676
2 31500 098.9527 342.1096 0478248 069.5676 355.7036 14.34227484336424
0 FENGYUN 1C DEB
1 31500U 99025BWP 13295.38331022  .00023343  00000-0  22044-2 0  5687
2 31500 098.9517 345.2262 0477717 060.7751 354.8730 14.34335462336853
